OBJECT_NAME,OBJECT_ID,EPOCH,MEAN_MOTION,ECCENTRICITY,INCLINATION,RA_OF_ASC_NODE,ARG_OF_PERICENTER,MEAN_ANOMALY,EPHEMERIS_TYPE,CLASSIFICATION_TYPE,NORAD_CAT_ID,ELEMENT_SET_NO,REV_AT_EPOCH,BSTAR,MEAN_MOTION_DOT,MEAN_MOTION_DDOT
ICEYE-X78,2026-100R,2026-07-16T17:20:34.213344,14.91813579,.0003485,97.7331,94.6264,51.9112,308.2420,0,U,68995,999,1110,.61117E-4,.561E-5,0
ICEYE-X82,2026-100S,2026-07-17T03:32:24.864864,14.91429725,.0005629,97.7325,94.9862,58.7895,301.3874,0,U,68996,999,1116,.1236E-3,.118E-4,0
YAM-15,2026-100T,2026-07-17T03:17:46.807584,14.90655958,.0009187,97.7325,95.0005,6.0714,354.0614,0,U,68997,999,1116,.81228E-4,.741E-5,0
FOREST-16 (SOWITASGOHT),2026-100U,2026-07-17T04:32:43.844640,14.91236616,.0001961,97.7357,95.1102,26.0422,334.0895,0,U,68998,999,1117,.72279E-4,.664E-5,0
FOREST-18 (MANGOSHRIKHAND),2026-100V,2026-07-16T23:18:05.009184,14.92661532,.0002788,97.7297,94.8845,101.5914,258.5618,0,U,68999,999,1114,.25619E-3,.2585E-4,0
GEMINI-POLLUX,2026-100W,2026-07-17T04:01:34.685184,14.92327437,.0002224,97.7288,95.0843,107.1230,253.0233,0,U,69000,999,1117,.78828E-4,.75E-5,0
FOREST-19 (PATADASTRA),2026-100X,2026-07-17T03:46:19.819776,14.93289968,.0002212,97.7337,95.1356,59.9064,300.2375,0,U,69001,999,1116,.54576E-4,.515E-5,0
NULINK-1,2026-100Y,2026-07-16T16:15:17.278848,14.92756308,.0000437,97.7319,94.6739,191.2303,168.8907,0,U,69002,999,1109,.65075E-4,.617E-5,0
YAM-12,2026-100Z,2026-07-16T17:00:54.188064,14.90461720,.0009806,97.7364,94.4683,347.1910,12.9057,0,U,69003,999,1108,.21645E-3,.2058E-4,0
GEN1A-1,2026-100AA,2026-07-17T04:16:39.726912,15.20304569,.0002416,97.4013,95.4390,270.3868,89.7091,0,U,69004,999,1137,.72585E-4,.1509E-4,0
GEN1A-2,2026-100AB,2026-07-17T04:06:20.723616,15.20482913,.0003267,97.4001,95.4323,274.9686,85.1176,0,U,69005,999,1137,.80318E-4,.1686E-4,0
JEN-1,2026-100AC,2026-07-17T04:14:22.356096,15.20468451,.0002157,97.4010,95.4426,259.4221,100.6771,0,U,69006,999,1136,.11438E-3,.2429E-4,0
BRO-21,2026-100AD,2026-07-16T17:15:48.061728,15.21637914,.0006397,97.4004,95.1291,323.2313,36.8483,0,U,69007,999,1129,.17614E-3,.3911E-4,0
YAM-14,2026-100AE,2026-07-16T23:17:35.118240,14.90353088,.0005935,97.7375,94.7442,23.7054,336.4436,0,U,69008,999,1112,.71448E-4,.64E-5,0
CAS500-2 RIDESHARE OBJECT AF,2026-100AF,2026-07-16T17:19:02.422848,15.20773742,.0003078,97.4002,94.9739,215.3942,144.7090,0,U,69009,999,1129,.28766E-3,.627E-4,0
DRISHTI,2026-100AG,2026-07-17T03:55:28.947072,15.20583009,.0003546,97.4004,95.4475,290.8692,69.2163,0,U,69010,999,1136,.61096E-4,.127E-4,0
EYCORE-1,2026-100AH,2026-07-17T03:44:27.612096,15.20876290,.0002759,97.4010,95.4689,301.3796,58.7169,0,U,69011,999,1136,.10343E-3,.2216E-4,0
JACKAL-004,2026-100AJ,2026-07-16T05:34:19.266816,15.21032310,.0005646,97.4609,94.6454,316.5258,43.5532,0,U,69012,999,1122,.16637E-3,.3623E-4,0
CAS500-2,2026-100AK,2026-07-17T03:45:57.867264,15.19738032,.0007918,97.3858,95.4404,245.3590,114.6821,0,U,69013,999,1136,.1744E-3,.3662E-4,0
CAS500-2 RIDESHARE OBJECT AL,2026-100AL,2026-07-16T16:03:11.526624,15.21390043,.0004797,97.4029,95.0718,330.2670,29.8292,0,U,69014,999,1129,.10506E-3,.2287E-4,0
FRONTIERSAT,2026-100AM,2026-07-17T04:08:53.630880,15.22140567,.0006337,97.3959,95.5414,306.8927,53.1728,0,U,69015,999,1138,.19702E-3,.4449E-4,0
RAVEN,2026-100AN,2026-07-17T04:26:08.526624,15.21498707,.000657,97.3995,95.5609,315.0846,44.9857,0,U,69016,999,1137,.58709E-4,.1252E-4,0
PELICAN-7,2026-100AP,2026-07-16T16:55:01.040160,15.23610438,.0003242,97.3858,95.1285,88.4258,271.7351,0,U,69017,999,1130,.27333E-4,.585E-5,0
EDDA-1,2026-100AQ,2026-07-17T04:06:37.332288,15.24124715,.000322,97.3773,95.5535,113.6102,246.5473,0,U,69018,999,1138,.5653E-3,.13687E-3,0
PELICAN-9,2026-100AR,2026-07-16T16:23:19.783104,15.22656941,.0002249,97.3629,94.9294,111.6096,248.5380,0,U,69019,999,1129,.51503E-4,.113E-4,0
SELENE,2026-100AS,2026-07-17T03:06:03.400128,15.20170688,.0002634,97.4003,95.3442,212.6828,147.4244,0,U,69020,999,1135,.14489E-3,.3068E-4,0
HELIOS,2026-100AT,2026-07-16T15:53:01.775904,15.20371241,.0002934,97.3988,94.8830,228.8557,131.2425,0,U,69021,999,1128,.18195E-3,.3893E-4,0
HYDRA-3,2026-100AU,2026-07-17T04:35:33.652608,15.20212170,.0003164,97.3989,95.3956,231.8370,128.2580,0,U,69022,999,1136,.92913E-4,.1945E-4,0
QUBE-II,2026-100AV,2026-07-17T04:16:47.015616,15.20634702,.0001196,97.4032,95.4646,223.4266,136.6875,0,U,69023,999,1136,.19038E-3,.4108E-4,0
BALKAN-2,2026-100AW,2026-07-16T15:45:53.402112,15.20358700,.0001459,97.4030,94.9394,240.6284,119.4806,0,U,69024,999,1128,.13239E-3,.2813E-4,0
STARLINK-37592,2026-101A,2026-07-17T00:57:18.916128,15.33448418,.0001659,97.2844,52.3998,94.1416,266.0016,0,U,69025,999,1114,.19305E-3,.6163E-4,0
