ICEYE-X78               
1 68995U 26100R   26197.72261821  .00000561  00000+0  61117-4 0  9991
2 68995  97.7331  94.6264 0003485  51.9112 308.2420 14.91813579 11109
ICEYE-X82               
1 68996U 26100S   26198.14751001  .00001180  00000+0  12360-3 0  9996
2 68996  97.7325  94.9862 0005629  58.7895 301.3874 14.91429725 11164
YAM-15                  
1 68997U 26100T   26198.13734731  .00000741  00000+0  81228-4 0  9999
2 68997  97.7325  95.0005 0009187   6.0714 354.0614 14.90655958 11160
FOREST-16 (SOWITASGOHT) 
1 68998U 26100U   26198.18939635  .00000664  00000+0  72279-4 0  9995
2 68998  97.7357  95.1102 0001961  26.0422 334.0895 14.91236616 11172
FOREST-18 (MANGOSHRIKH*)
1 68999U 26100V   26197.97089131  .00002585  00000+0  25619-3 0  9998
2 68999  97.7297  94.8845 0002788 101.5914 258.5618 14.92661532 11149
GEMINI-POLLUX           
1 69000U 26100W   26198.16776256  .00000750  00000+0  78828-4 0  9998
2 69000  97.7288  95.0843 0002224 107.1230 253.0233 14.92327437 11171
FOREST-19 (PATADASTRA)  
1 69001U 26100X   26198.15717384  .00000515  00000+0  54576-4 0  9998
2 69001  97.7337  95.1356 0002212  59.9064 300.2375 14.93289968 11161
NULINK-1                
1 69002U 26100Y   26197.67728332  .00000617  00000+0  65075-4 0  9999
2 69002  97.7319  94.6739 0000437 191.2303 168.8907 14.92756308 11091
YAM-12                  
1 69003U 26100Z   26197.70896051  .00002058  00000+0  21645-3 0  9993
2 69003  97.7364  94.4683 0009806 347.1910  12.9057 14.90461720 11086
GEN1A-1                 
1 69004U 26100AA  26198.17823758  .00001509  00000+0  72585-4 0  9990
2 69004  97.4013  95.4390 0002416 270.3868  89.7091 15.20304569 11373
GEN1A-2                 
1 69005U 26100AB  26198.17107319  .00001686  00000+0  80318-4 0  9998
2 69005  97.4001  95.4323 0003267 274.9686  85.1176 15.20482913 11374
JEN-1                   
1 69006U 26100AC  26198.17664764  .00002429  00000+0  11438-3 0  9993
2 69006  97.4010  95.4426 0002157 259.4221 100.6771 15.20468451 11363
BRO-21                  
1 69007U 26100AD  26197.71930627  .00003911  00000+0  17614-3 0  9996
2 69007  97.4004  95.1291 0006397 323.2313  36.8483 15.21637914 11291
YAM-14                  
1 69008U 26100AE  26197.97054535  .00000640  00000+0  71448-4 0  9992
2 69008  97.7375  94.7442 0005935  23.7054 336.4436 14.90353088 11121
CAS500-2 RIDESHARE OBJE*
1 69009U 26100AF  26197.72155582  .00006270  00000+0  28766-3 0  9999
2 69009  97.4002  94.9739 0003078 215.3942 144.7090 15.20773742 11299
DRISHTI                 
1 69010U 26100AG  26198.16352948  .00001270  00000+0  61096-4 0  9994
2 69010  97.4004  95.4475 0003546 290.8692  69.2163 15.20583009 11361
EYCORE-1                
1 69011U 26100AH  26198.15587514  .00002216  00000+0  10343-3 0  9992
2 69011  97.4010  95.4689 0002759 301.3796  58.7169 15.20876290 11360
JACKAL-004              
1 69012U 26100AJ  26197.23216744  .00003623  00000+0  16637-3 0  9990
2 69012  97.4609  94.6454 0005646 316.5258  43.5532 15.21032310 11224
CAS500-2                
1 69013U 26100AK  26198.15691976  .00003662  00000+0  17440-3 0  9993
2 69013  97.3858  95.4404 0007918 245.3590 114.6821 15.19738032 11363
CAS500-2 RIDESHARE OBJE*
1 69014U 26100AL  26197.66888341  .00002287  00000+0  10506-3 0  9991
2 69014  97.4029  95.0718 0004797 330.2670  29.8292 15.21390043 11294
FRONTIERSAT             
1 69015U 26100AM  26198.17284295  .00004449  00000+0  19702-3 0  9996
2 69015  97.3959  95.5414 0006337 306.8927  53.1728 15.22140567 11389
RAVEN                   
1 69016U 26100AN  26198.18482091  .00001252  00000+0  58709-4 0  9992
2 69016  97.3995  95.5609 0006570 315.0846  44.9857 15.21498707 11378
PELICAN-7               
1 69017U 26100AP  26197.70487315  .00000585  00000+0  27333-4 0  9991
2 69017  97.3858  95.1285 0003242  88.4258 271.7351 15.23610438 11305
EDDA-1                  
1 69018U 26100AQ  26198.17126542  .00013687  00000+0  56530-3 0  9993
2 69018  97.3773  95.5535 0003220 113.6102 246.5473 15.24124715 11381
PELICAN-9               
1 69019U 26100AR  26197.68286786  .00001130  00000+0  51503-4 0  9992
2 69019  97.3629  94.9294 0002249 111.6096 248.5380 15.22656941 11295
SELENE                  
1 69020U 26100AS  26198.12920602  .00003068  00000+0  14489-3 0  9999
2 69020  97.4003  95.3442 0002634 212.6828 147.4244 15.20170688 11357
HELIOS                  
1 69021U 26100AT  26197.66182611  .00003893  00000+0  18195-3 0  9992
2 69021  97.3988  94.8830 0002934 228.8557 131.2425 15.20371241 11287
HYDRA-3                 
1 69022U 26100AU  26198.19136172  .00001945  00000+0  92913-4 0  9990
2 69022  97.3989  95.3956 0003164 231.8370 128.2580 15.20212170 11369
QUBE-II                 
1 69023U 26100AV  26198.17832194  .00004108  00000+0  19038-3 0  9996
2 69023  97.4032  95.4646 0001196 223.4266 136.6875 15.20634702 11360
BALKAN-2                
1 69024U 26100AW  26197.65686808  .00002813  00000+0  13239-3 0  9996
2 69024  97.4030  94.9394 0001459 240.6284 119.4806 15.20358700 11281
STARLINK-37592          
1 69025U 26101A   26198.03980227  .00006163  00000+0  19305-3 0  9995
2 69025  97.2844  52.3998 0001659  94.1416 266.0016 15.33448418 11149
